[Satellite]
VERSION=1.1
NAME=SHIYAN 20C (SY-20C)
NICKNAME=SHIYAN 20C (SY-20C)
TLE1=1 54214U 22142A   22332.12061062 -.00000136  00000+0  00000+0 0  9996
TLE2=2 54214  59.9979 263.9832 0010455 307.8797  52.1287 14.27346739  4303
STATUS=0
